STARLINK-1405
1 25702C 20035AX  21325.10191127  .00005506  00000-0  36906-3 0  3259
2 25702  53.0529 242.7736 0001926  72.4086   6.8783 15.06376912    13
